[{"OBJECT_NAME":"STARLINK-2654","OBJECT_ID":"2021-040AC","EPOCH":"2026-03-09T14:45:45.520416","MEAN_MOTION":15.30209025,"ECCENTRICITY":0.0001338,"INCLINATION":53.1603,"RA_OF_ASC_NODE":178.4674,"ARG_OF_PERICENTER":68.4218,"MEAN_ANOMALY":291.6926,"EPHEMERIS_TYPE":0,"CLASSIFICATION_TYPE":"U","NORAD_CAT_ID":48454,"ELEMENT_SET_NO":999,"REV_AT_EPOCH":26667,"BSTAR":0.00025046,"MEAN_MOTION_DOT":7.068e-5,"MEAN_MOTION_DDOT":0},{"OBJECT_NAME":"COSMOS 1975","OBJECT_ID":"1988-093A","EPOCH":"2026-03-09T14:15:08.474112","MEAN_MOTION":15.28069249,"ECCENTRICITY":0.0012117,"INCLINATION":82.5181,"RA_OF_ASC_NODE":117.7814,"ARG_OF_PERICENTER":163.8427,"MEAN_ANOMALY":196.3201,"EPHEMERIS_TYPE":0,"CLASSIFICATION_TYPE":"U","NORAD_CAT_ID":19573,"ELEMENT_SET_NO":999,"REV_AT_EPOCH":1939,"BSTAR":0.0002787,"MEAN_MOTION_DOT":7.676e-5,"MEAN_MOTION_DDOT":0}]
